{"type": "FeatureCollection", "features": [ {"type": "Feature", "properties": {"norad_id": 30332, "name": "FENGYUN 1C DEB", "group": "fengyun-1c-debris", "lat": 43.305856917645414, "lon": 145.2479195728756, "alt_km": 854.7380140685445, "timestamp": "2025-12-10T11:33:53.660961+00:00", "meta": {"OBJECT_NAME": "FENGYUN 1C DEB", "OBJECT_ID": "1999-025AAT", "EPOCH": "2025-12-09T12:49:44.629248", "MEAN_MOTION": 13.76705321, "ECCENTRICITY": 0.0178034, "INCLINATION": 99.7147, "RA_OF_ASC_NODE": 314.9892, "ARG_OF_PERICENTER": 111.2755, "MEAN_ANOMALY": 11.0093, "EPHEMERIS_TYPE": 0, "CLASSIFICATION_TYPE": "U", "NORAD_CAT_ID": 30332, "ELEMENT_SET_NO": 999, "REV_AT_EPOCH": 94671, "BSTAR": 0.00057362, "MEAN_MOTION_DOT": 5.88e-06, "MEAN_MOTION_DDOT": 0}, "tle": {"line1": "1 30332U 99025AAT 25343.53454432  .00000588  00000+0  57362-3 0  9999", "line2": "2 30332  99.7147 314.9892 0178034 111.2755  11.0093 13.76705321946717"}}, "geometry": {"type": "Point", "coordinates": [145.2479195728756, 43.305856917645414]}}, {"type": "Feature", "properties": {"norad_id": 30334, "name": "FENGYUN 1C DEB", "group": "fengyun-1c-debris", "lat": -42.53829584809433, "lon": 92.5022669374099, "alt_km": 836.261382389458, "timestamp": "2025-12-10T11:33:53.660971+00:00", "meta": {"OBJECT_NAME": "FENGYUN 1C DEB", "OBJECT_ID": "1999-025AAV", "EPOCH": "2025-12-09T06:44:10.592160", "MEAN_MOTION": 13.92359656, "ECCENTRICITY": 0.0144655, "INCLINATION": 99.0213, "RA_OF_ASC_NODE": 82.9509, "ARG_OF_PERICENTER": 351.4535, "MEAN_ANOMALY": 68.5785, "EPHEMERIS_TYPE": 0, "CLASSIFICATION_TYPE": "U", "NORAD_CAT_ID": 30334, "ELEMENT_SET_NO": 999, "REV_AT_EPOCH": 95173, "BSTAR": 0.0018043, "MEAN_MOTION_DOT": 2.483e-05, "MEAN_MOTION_DDOT": 0}, "tle": {"line1": "1 30334U 99025AAV 25343.28067815  .00002483  00000+0  18043-2 0  9996", "line2": "2 30334  99.0213  82.9509 0144655 351.4535  68.5785 13.92359656951736"}}, "geometry": {"type": "Point", "coordinates": [92.5022669374099, -42.53829584809433]}}, {"type": "Feature", "properties": {"norad_id": 30335, "name": "FENGYUN 1C DEB", "group": "fengyun-1c-debris", "lat": 80.37961005275999, "lon": -136.50372899806615, "alt_km": 811.8930269382245, "timestamp": "2025-12-10T11:33:53.660981+00:00", "meta": {"OBJECT_NAME": "FENGYUN 1C DEB", "OBJECT_ID": "1999-025AAW", "EPOCH": "2025-12-09T18:48:33.294816", "MEAN_MOTION": 14.01359856, "ECCENTRICITY": 0.0132641, "INCLINATION": 98.9051, "RA_OF_ASC_NODE": 335.1516, "ARG_OF_PERICENTER": 139.7499, "MEAN_ANOMALY": 34.7695, "EPHEMERIS_TYPE": 0, "CLASSIFICATION_TYPE": "U", "NORAD_CAT_ID": 30335, "ELEMENT_SET_NO": 999, "REV_AT_EPOCH": 96549, "BSTAR": 0.00016278, "MEAN_MOTION_DOT": 2.23e-06, "MEAN_MOTION_DDOT": 0}, "tle": {"line1": "1 30335U 99025AAW 25343.78371869  .00000223  00000+0  16278-3 0  9998", "line2": "2 30335  98.9051 335.1516 0132641 139.7499  34.7695 14.01359856965490"}}, "geometry": {"type": "Point", "coordinates": [-136.50372899806615, 80.37961005275999]}}, {"type": "Feature", "properties": {"norad_id": 30336, "name": "FENGYUN 1C DEB", "group": "fengyun-1c-debris", "lat": 25.452298427200216, "lon": -170.37182749522648, "alt_km": 850.5671625320256, "timestamp": "2025-12-10T11:33:53.660991+00:00", "meta": {"OBJECT_NAME": "FENGYUN 1C DEB", "OBJECT_ID": "1999-025AAX", "EPOCH": "2025-12-10T00:56:50.124192", "MEAN_MOTION": 14.19299036, "ECCENTRICITY": 0.0043691, "INCLINATION": 98.6008, "RA_OF_ASC_NODE": 5.0679, "ARG_OF_PERICENTER": 16.4081, "MEAN_ANOMALY": 38.2317, "EPHEMERIS_TYPE": 0, "CLASSIFICATION_TYPE": "U", "NORAD_CAT_ID": 30336, "ELEMENT_SET_NO": 999, "REV_AT_EPOCH": 97564, "BSTAR": 0.00048897, "MEAN_MOTION_DOT": 9.93e-06, "MEAN_MOTION_DDOT": 0}, "tle": {"line1": "1 30336U 99025AAX 25344.03946903  .00000993  00000+0  48897-3 0  9991", "line2": "2 30336  98.6008   5.0679 0043691  16.4081  38.2317 14.19299036975647"}}, "geometry": {"type": "Point", "coordinates": [-170.37182749522648, 25.452298427200216]}}, {"type": "Feature", "properties": {"norad_id": 30338, "name": "FENGYUN 1C DEB", "group": "fengyun-1c-debris", "lat": -48.93647543491285, "lon": 64.02288217121713, "alt_km": 801.2123497776356, "timestamp": "2025-12-10T11:33:53.661001+00:00", "meta": {"OBJECT_NAME": "FENGYUN 1C DEB", "OBJECT_ID": "1999-025AAZ", "EPOCH": "2025-12-10T03:45:40.010976", "MEAN_MOTION": 14.47468055, "ECCENTRICITY": 0.0272038, "INCLINATION": 98.4585, "RA_OF_ASC_NODE": 53.863, "ARG_OF_PERICENTER": 201.7244, "MEAN_ANOMALY": 212.361, "EPHEMERIS_TYPE": 0, "CLASSIFICATION_TYPE": "U", "NORAD_CAT_ID": 30338, "ELEMENT_SET_NO": 999, "REV_AT_EPOCH": 98107, "BSTAR": 0.0015545, "MEAN_MOTION_DOT": 9.062e-05, "MEAN_MOTION_DDOT": 0}, "tle": {"line1": "1 30338U 99025AAZ 25344.15671309  .00009062  00000+0  15545-2 0  9990", "line2": "2 30338  98.4585  53.8630 0272038 201.7244 212.3610 14.47468055981079"}}, "geometry": {"type": "Point", "coordinates": [64.02288217121713, -48.93647543491285]}}, {"type": "Feature", "properties": {"norad_id": 30339, "name": "FENGYUN 1C DEB", "group": "fengyun-1c-debris", "lat": -65.81739046805434, "lon": -109.7920142446562, "alt_km": 785.6044110385374, "timestamp": "2025-12-10T11:33:53.661024+00:00", "meta": {"OBJECT_NAME": "FENGYUN 1C DEB", "OBJECT_ID": "1999-025ABA", "EPOCH": "2025-12-09T18:28:22.772064", "MEAN_MOTION": 14.38084163, "ECCENTRICITY": 0.0020972, "INCLINATION": 98.9734, "RA_OF_ASC_NODE": 90.0666, "ARG_OF_PERICENTER": 93.9878, "MEAN_ANOMALY": 68.4477, "EPHEMERIS_TYPE": 0, "CLASSIFICATION_TYPE": "U", "NORAD_CAT_ID": 30339, "ELEMENT_SET_NO": 999, "REV_AT_EPOCH": 97384, "BSTAR": 0.0040161, "MEAN_MOTION_DOT": 0.00012172, "MEAN_MOTION_DDOT": 0}, "tle": {"line1": "1 30339U 99025ABA 25343.76970801  .00012172  00000+0  40161-2 0  9994", "line2": "2 30339  98.9734  90.0666 0020972  93.9878  68.4477 14.38084163973846"}}, "geometry": {"type": "Point", "coordinates": [-109.7920142446562, -65.81739046805434]}}, {"type": "Feature", "properties": {"norad_id": 30340, "name": "FENGYUN 1C DEB", "group": "fengyun-1c-debris", "lat": 23.57603081526477, "lon": 37.260285354993, "alt_km": 924.3847431531631, "timestamp": "2025-12-10T11:33:53.661035+00:00", "meta": {"OBJECT_NAME": "FENGYUN 1C DEB", "OBJECT_ID": "1999-025ABB", "EPOCH": "2025-12-10T03:10:03.727776", "MEAN_MOTION": 14.0459447, "ECCENTRICITY": 0.014608, "INCLINATION": 99.0015, "RA_OF_ASC_NODE": 40.8798, "ARG_OF_PERICENTER": 142.057, "MEAN_ANOMALY": 275.2056, "EPHEMERIS_TYPE": 0, "CLASSIFICATION_TYPE": "U", "NORAD_CAT_ID": 30340, "ELEMENT_SET_NO": 999, "REV_AT_EPOCH": 96744, "BSTAR": 3.3585e-05, "MEAN_MOTION_DOT": 1.6e-07, "MEAN_MOTION_DDOT": 0}, "tle": {"line1": "1 30340U 99025ABB 25344.13198759  .00000016  00000+0  33585-4 0  9990", "line2": "2 30340  99.0015  40.8798 0146080 142.0570 275.2056 14.04594470967445"}}, "geometry": {"type": "Point", "coordinates": [37.260285354993, 23.57603081526477]}}, {"type": "Feature", "properties": {"norad_id": 30341, "name": "FENGYUN 1C DEB", "group": "fengyun-1c-debris", "lat": -7.879051362996757, "lon": -126.3419244434112, "alt_km": 770.4384704322629, "timestamp": "2025-12-10T11:33:53.661045+00:00", "meta": {"OBJECT_NAME": "FENGYUN 1C DEB", "OBJECT_ID": "1999-025ABC", "EPOCH": "2025-12-10T03:56:11.554368", "MEAN_MOTION": 14.34022899, "ECCENTRICITY": 0.0050409, "INCLINATION": 99.2179, "RA_OF_ASC_NODE": 232.0318, "ARG_OF_PERICENTER": 64.3501, "MEAN_ANOMALY": 88.3632, "EPHEMERIS_TYPE": 0, "CLASSIFICATION_TYPE": "U", "NORAD_CAT_ID": 30341, "ELEMENT_SET_NO": 999, "REV_AT_EPOCH": 97044, "BSTAR": 0.0043391, "MEAN_MOTION_DOT": 0.00012266, "MEAN_MOTION_DDOT": 0}, "tle": {"line1": "1 30341U 99025ABC 25344.16402262  .00012266  00000+0  43391-2 0  9995", "line2": "2 30341  99.2179 232.0318 0050409  64.3501  88.3632 14.34022899970442"}}, "geometry": {"type": "Point", "coordinates": [-126.3419244434112, -7.879051362996757]}}, {"type": "Feature", "properties": {"norad_id": 30342, "name": "FENGYUN 1C DEB", "group": "fengyun-1c-debris", "lat": -61.709351074863726, "lon": -35.74688929708036, "alt_km": 1021.2932113406341, "timestamp": "2025-12-10T11:33:53.661055+00:00", "meta": {"OBJECT_NAME": "FENGYUN 1C DEB", "OBJECT_ID": "1999-025ABD", "EPOCH": "2025-12-09T12:06:09.457632", "MEAN_MOTION": 13.80036994, "ECCENTRICITY": 0.01682622, "INCLINATION": 100.1956, "RA_OF_ASC_NODE": 162.7335, "ARG_OF_PERICENTER": 130.9389, "MEAN_ANOMALY": 296.4032, "EPHEMERIS_TYPE": 0, "CLASSIFICATION_TYPE": "U", "NORAD_CAT_ID": 30342, "ELEMENT_SET_NO": 999, "REV_AT_EPOCH": 94844, "BSTAR": 0.0010784577, "MEAN_MOTION_DOT": 1.197e-05, "MEAN_MOTION_DDOT": 0}, "tle": {"line1": "1 30342U 99025ABD 25343.50427613  .00001197  00000+0  10785-2 0  9992", "line2": "2 30342 100.1956 162.7335 0168262 130.9389 296.4032 13.80036994948449"}}, "geometry": {"type": "Point", "coordinates": [-35.74688929708036, -61.709351074863726]}}, {"type": "Feature", "properties": {"norad_id": 30344, "name": "FENGYUN 1C DEB", "group": "fengyun-1c-debris", "lat": 70.65472140517615, "lon": -87.32738153328707, "alt_km": 707.9998389432994, "timestamp": "2025-12-10T11:33:53.661065+00:00", "meta": {"OBJECT_NAME": "FENGYUN 1C DEB", "OBJECT_ID": "1999-025ABF", "EPOCH": "2025-12-10T04:42:18.408096", "MEAN_MOTION": 14.51671826, "ECCENTRICITY": 0.0007969, "INCLINATION": 98.8191, "RA_OF_ASC_NODE": 66.128, "ARG_OF_PERICENTER": 128.4909, "MEAN_ANOMALY": 285.9276, "EPHEMERIS_TYPE": 0, "CLASSIFICATION_TYPE": "U", "NORAD_CAT_ID": 30344, "ELEMENT_SET_NO": 999, "REV_AT_EPOCH": 98040, "BSTAR": 0.0036848, "MEAN_MOTION_DOT": 0.0001477, "MEAN_MOTION_DDOT": 0}, "tle": {"line1": "1 30344U 99025ABF 25344.19604639  .00014770  00000+0  36848-2 0  9994", "line2": "2 30344  98.8191  66.1280 0007969 128.4909 285.9276 14.51671826980400"}}, "geometry": {"type": "Point", "coordinates": [-87.32738153328707, 70.65472140517615]}}]}